GLOBALSTAR M063         
1 26081U 00008A   25206.76207340 -.00000079  00000+0  49181-4 0  9992
2 26081  51.9976   9.9795 0005020  39.9770  61.6666 11.86173804162152
GLOBALSTAR M062         
1 26082U 00008B   25206.88447774 -.00000020  00000+0  56242-3 0  9994
2 26082  51.9872 341.9857 0007220 187.8082 313.9560 12.43470679501437
GLOBALSTAR M060         
1 26083U 00008C   25206.75011031 -.00000193  00000+0 -10156-2 0  9999
2 26083  52.0038 307.8454 0003551 195.3200 331.8087 12.17662683157065
GLOBALSTAR M064         
1 26084U 00008D   25206.91337521 -.00000070  00000+0  18832-3 0  9996
2 26084  52.0031 107.9523 0001566 106.3330 253.7674 11.88535080171703
GLOBALSTAR M065         
1 31571U 07020A   25206.95968199 -.00000107  00000+0 -18391-4 0  9992
2 31571  51.9896 108.2561 0010670  35.4027  49.1277 12.62010206838307
GLOBALSTAR M069         
1 31573U 07020C   25206.63722984 -.00000055  00000+0  34287-3 0  9991
2 31573  51.9949  96.3907 0000458 201.8423 170.0415 12.23447571838765
GLOBALSTAR M071         
1 31576U 07020F   25206.94068485 -.00000104  00000+0 -12712-3 0  9992
2 31576  52.0059 122.2353 0000406 140.9227 298.5916 12.18255998499662
